IRIDIUM 128             
1 42811U 17039J   26187.60479691  .00000218  00000+0  70737-4 0  9990
2 42811  86.3962  17.0296 0002211  92.6222 267.5227 14.34219419472761
IRIDIUM 100             
1 42956U 17061B   26187.76970612  .00000073  00000+0  18849-4 0  9996
2 42956  86.3962  16.9971 0002197  89.8241 270.3206 14.34218294457583
IRIDIUM 122             
1 42957U 17061C   26187.59845481  .00000121  00000+0  36078-4 0  9991
2 42957  86.3962  17.0692 0002093  87.6313 272.5122 14.34218834457566
IRIDIUM 129             
1 42958U 17061D   26187.76335955  .00000209  00000+0  67612-4 0  9996
2 42958  86.3964  17.0673 0002249  83.6016 276.5436 14.34220117457601
IRIDIUM 107             
1 42960U 17061F   26187.61113843  .00000213  00000+0  69099-4 0  9999
2 42960  86.3963  17.1482 0001989  93.0233 267.1190 14.34219214457607
IRIDIUM 132             
1 42961U 17061G   26187.61747970  .00000210  00000+0  67994-4 0  9993
2 42961  86.3962  17.1248 0002140  88.5225 271.6216 14.34220153457600
