{
  "schema": "int-telemetry-real-tle-snapshot/v1",
  "source": "celestrak",
  "group": "IRIDIUM-NEXT",
  "format": "celestrak-gp-json",
  "source_url": "https://celestrak.org/NORAD/elements/gp.php?GROUP=IRIDIUM-NEXT&FORMAT=JSON",
  "downloaded_at": "2026-07-07T06:33:54.787Z",
  "generated_at": "2026-07-07T06:33:56.153Z",
  "fingerprint": "75f53801",
  "shell_id": "iridium-next-real-86.4deg-785km",
  "catalog_count": 80,
  "shell_count": 67,
  "selected_count": 66,
  "mean_altitude_km": 784.8,
  "mean_inclination_deg": 86.3965,
  "mean_mean_motion_rev_per_day": 14.34218389,
  "layout": {
    "planes": 6,
    "satellites_per_plane": 11,
    "selection_strategy": "target-shell-raan-clusters-even-slot-sampling",
    "raan_cluster_threshold_deg": 6,
    "target_inclination_deg": 86.4,
    "target_altitude_km": 781,
    "selected_shell_key": "86.5deg-800km",
    "target_shell_distance": 4.16
  },
  "satellites": [
    {
      "satellite_id": "P01-S01",
      "norad_id": 42956,
      "satellite_name": "IRIDIUM 100",
      "cospar_id": "2017-061B",
      "shell_id": "iridium-next-real-86.4deg-785km",
      "plane_id": 0,
      "slot_id": 0,
      "epoch": "2026-07-06T18:28:22.608768",
      "inclination": 86.3962,
      "raan": 16.99709999999999,
      "eccentricity": 0.0002197,
      "argument_of_perigee": 89.82409999999999,
      "mean_anomaly": 270.3206,
      "mean_motion": 14.34218294,
      "bstar": 0.000018849,
      "status": "active",
      "raw_omm": {
        "OBJECT_NAME": "IRIDIUM 100",
        "OBJECT_ID": "2017-061B",
        "EPOCH": "2026-07-06T18:28:22.608768",
        "MEAN_MOTION": 14.34218294,
        "ECCENTRICITY": 0.0002197,
        "INCLINATION": 86.3962,
        "RA_OF_ASC_NODE": 16.9971,
        "ARG_OF_PERICENTER": 89.8241,
        "MEAN_ANOMALY": 270.3206,
        "EPHEMERIS_TYPE": 0,
        "CLASSIFICATION_TYPE": "U",
        "NORAD_CAT_ID": 42956,
        "ELEMENT_SET_NO": 999,
        "REV_AT_EPOCH": 45758,
        "BSTAR": 0.000018849,
        "MEAN_MOTION_DOT": 7.3e-7,
        "MEAN_MOTION_DDOT": 0
      },
      "source": "celestrak",
      "source_url": "https://celestrak.org/NORAD/elements/gp.php?GROUP=IRIDIUM-NEXT&FORMAT=JSON",
      "catalog_fingerprint": "75f53801"
    },
    {
      "satellite_id": "P01-S02",
      "norad_id": 42958,
      "satellite_name": "IRIDIUM 129",
      "cospar_id": "2017-061D",
      "shell_id": "iridium-next-real-86.4deg-785km",
      "plane_id": 0,
      "slot_id": 1,
      "epoch": "2026-07-06T18:19:14.265120",
      "inclination": 86.3964,
      "raan": 17.06729999999999,
      "eccentricity": 0.0002249,
      "argument_of_perigee": 83.60160000000002,
      "mean_anomaly": 276.54359999999997,
      "mean_motion": 14.34220117,
      "bstar": 0.000067612,
      "status": "active",
      "raw_omm": {
        "OBJECT_NAME": "IRIDIUM 129",
        "OBJECT_ID": "2017-061D",
        "EPOCH": "2026-07-06T18:19:14.265120",
        "MEAN_MOTION": 14.34220117,
        "ECCENTRICITY": 0.0002249,
        "INCLINATION": 86.3964,
        "RA_OF_ASC_NODE": 17.0673,
        "ARG_OF_PERICENTER": 83.6016,
        "MEAN_ANOMALY": 276.5436,
        "EPHEMERIS_TYPE": 0,
        "CLASSIFICATION_TYPE": "U",
        "NORAD_CAT_ID": 42958,
        "ELEMENT_SET_NO": 999,
        "REV_AT_EPOCH": 45760,
        "BSTAR": 0.000067612,
        "MEAN_MOTION_DOT": 0.00000209,
        "MEAN_MOTION_DDOT": 0
      },
      "source": "celestrak",
      "source_url": "https://celestrak.org/NORAD/elements/gp.php?GROUP=IRIDIUM-NEXT&FORMAT=JSON",
      "catalog_fingerprint": "75f53801"
    },
    {
      "satellite_id": "P01-S03",
      "norad_id": 42961,
      "satellite_name": "IRIDIUM 132",
      "cospar_id": "2017-061G",
      "shell_id": "iridium-next-real-86.4deg-785km",
      "plane_id": 0,
      "slot_id": 2,
      "epoch": "2026-07-06T14:49:10.246080",
      "inclination": 86.3962,
      "raan": 17.124799999999993,
      "eccentricity": 0.000214,
      "argument_of_perigee": 88.52249999999998,
      "mean_anomaly": 271.62159999999994,
      "mean_motion": 14.34220153,
      "bstar": 0.000067994,
      "status": "active",
      "raw_omm": {
        "OBJECT_NAME": "IRIDIUM 132",
        "OBJECT_ID": "2017-061G",
        "EPOCH": "2026-07-06T14:49:10.246080",
        "MEAN_MOTION": 14.34220153,
        "ECCENTRICITY": 0.000214,
        "INCLINATION": 86.3962,
        "RA_OF_ASC_NODE": 17.1248,
        "ARG_OF_PERICENTER": 88.5225,
        "MEAN_ANOMALY": 271.6216,
        "EPHEMERIS_TYPE": 0,
        "CLASSIFICATION_TYPE": "U",
        "NORAD_CAT_ID": 42961,
        "ELEMENT_SET_NO": 999,
        "REV_AT_EPOCH": 45760,
        "BSTAR": 0.000067994,
        "MEAN_MOTION_DOT": 0.0000021,
        "MEAN_MOTION_DDOT": 0
      },
      "source": "celestrak",
      "source_url": "https://celestrak.org/NORAD/elements/gp.php?GROUP=IRIDIUM-NEXT&FORMAT=JSON",
      "catalog_fingerprint": "75f53801"
    },
    {
      "satellite_id": "P01-S04",
      "norad_id": 42960,
      "satellite_name": "IRIDIUM 107",
      "cospar_id": "2017-061F",
      "shell_id": "iridium-next-real-86.4deg-785km",
      "plane_id": 0,
      "slot_id": 3,
      "epoch": "2026-07-06T14:40:02.360352",
      "inclination": 86.3963,
      "raan": 17.148199999999974,
      "eccentricity": 0.0001989,
      "argument_of_perigee": 93.0233,
      "mean_anomaly": 267.119,
      "mean_motion": 14.34219214,
      "bstar": 0.000069099,
      "status": "active",
      "raw_omm": {
        "OBJECT_NAME": "IRIDIUM 107",
        "OBJECT_ID": "2017-061F",
        "EPOCH": "2026-07-06T14:40:02.360352",
        "MEAN_MOTION": 14.34219214,
        "ECCENTRICITY": 0.0001989,
        "INCLINATION": 86.3963,
        "RA_OF_ASC_NODE": 17.1482,
        "ARG_OF_PERICENTER": 93.0233,
        "MEAN_ANOMALY": 267.119,
        "EPHEMERIS_TYPE": 0,
        "CLASSIFICATION_TYPE": "U",
        "NORAD_CAT_ID": 42960,
        "ELEMENT_SET_NO": 999,
        "REV_AT_EPOCH": 45760,
        "BSTAR": 0.000069099,
        "MEAN_MOTION_DOT": 0.00000213,
        "MEAN_MOTION_DDOT": 0
      },
      "source": "celestrak",
      "source_url": "https://celestrak.org/NORAD/elements/gp.php?GROUP=IRIDIUM-NEXT&FORMAT=JSON",
      "catalog_fingerprint": "75f53801"
    },
    {
      "satellite_id": "P01-S05",
      "norad_id": 42811,
      "satellite_name": "IRIDIUM 128",
      "cospar_id": "2017-039J",
      "shell_id": "iridium-next-real-86.4deg-785km",
      "plane_id": 0,
      "slot_id": 4,
      "epoch": "2026-07-06T14:30:54.453024",
      "inclination": 86.3962,
      "raan": 17.029600000000016,
      "eccentricity": 0.0002211,
      "argument_of_perigee": 92.62220000000002,
      "mean_anomaly": 267.5227,
      "mean_motion": 14.34219419,
      "bstar": 0.000070737,
      "status": "active",
      "raw_omm": {
        "OBJECT_NAME": "IRIDIUM 128",
        "OBJECT_ID": "2017-039J",
        "EPOCH": "2026-07-06T14:30:54.453024",
        "MEAN_MOTION": 14.34219419,
        "ECCENTRICITY": 0.0002211,
        "INCLINATION": 86.3962,
        "RA_OF_ASC_NODE": 17.0296,
        "ARG_OF_PERICENTER": 92.6222,
        "MEAN_ANOMALY": 267.5227,
        "EPHEMERIS_TYPE": 0,
        "CLASSIFICATION_TYPE": "U",
        "NORAD_CAT_ID": 42811,
        "ELEMENT_SET_NO": 999,
        "REV_AT_EPOCH": 47276,
        "BSTAR": 0.000070737,
        "MEAN_MOTION_DOT": 0.00000218,
        "MEAN_MOTION_DDOT": 0
      },
      "source": "celestrak",
      "source_url": "https://celestrak.org/NORAD/elements/gp.php?GROUP=IRIDIUM-NEXT&FORMAT=JSON",
      "catalog_fingerprint": "75f53801"
    },
    {
      "satellite_id": "P01-S06",
      "norad_id": 42957,
      "satellite_name": "IRIDIUM 122",
      "cospar_id": "2017-061C",
      "shell_id": "iridium-next-real-86.4deg-785km",
      "plane_id": 0,
      "slot_id": 5,
      "epoch": "2026-07-06T14:21:46.495584",
      "inclination": 86.3962,
      "raan": 17.069200000000023,
      "eccentricity": 0.0002093,
      "argument_of_perigee": 87.63130000000001,
      "mean_anomaly": 272.5122,
      "mean_motion": 14.34218834,
      "bstar": 0.000036078,
      "status": "active",
      "raw_omm": {
        "OBJECT_NAME": "IRIDIUM 122",
        "OBJECT_ID": "2017-061C",
        "EPOCH": "2026-07-06T14:21:46.495584",
        "MEAN_MOTION": 14.34218834,
        "ECCENTRICITY": 0.0002093,
        "INCLINATION": 86.3962,
        "RA_OF_ASC_NODE": 17.0692,
        "ARG_OF_PERICENTER": 87.6313,
        "MEAN_ANOMALY": 272.5122,
        "EPHEMERIS_TYPE": 0,
        "CLASSIFICATION_TYPE": "U",
        "NORAD_CAT_ID": 42957,
        "ELEMENT_SET_NO": 999,
        "REV_AT_EPOCH": 45756,
        "BSTAR": 0.000036078,
        "MEAN_MOTION_DOT": 0.00000121,
        "MEAN_MOTION_DDOT": 0
      },
      "source": "celestrak",
      "source_url": "https://celestrak.org/NORAD/elements/gp.php?GROUP=IRIDIUM-NEXT&FORMAT=JSON",
      "catalog_fingerprint": "75f53801"
    }
  ]
}